{
	"creator": "Satellites plugin version 0.7.2 (updated)",
	"hintColor": [0.4, 0.4, 0.4],
	"satellites": 
	{
		"25949": 
		{
			"comms": [],
			"groups": ["geostationary"],
			"lastUpdated": "2012-07-17T11:32:02",
			"name": "TELSTAR 12 (ORION 2)",
			"orbitVisible": false,
			"tle1": "1 25949U 99059A   12196.86701547 -.00000119  00000-0  10000-3 0  1839",
			"tle2": "2 25949   0.0145 302.4386 0003130 172.0517 115.7381  1.00271993 46645",
			"visible": false
		},
		"25954": 
		{
			"comms": [],
			"groups": ["geostationary"],
			"lastUpdated": "2012-07-17T11:32:02",
			"name": "AMC-4 (GE-4)",
			"orbitVisible": false,
			"tle1": "1 25954U 99060A   12198.20656122 -.00000273  00000-0  00000+0 0  3057",
			"tle2": "2 25954   0.0166  27.7021 0002654  77.8246 196.2829  1.00272224 46502",
			"visible": false
		},
		"26038": 
		{
			"comms": [],
			"groups": ["geostationary"],
			"lastUpdated": "2012-07-17T11:32:02",
			"name": "GALAXY 11 (G-11)",
			"orbitVisible": false,
			"tle1": "1 26038U 99071A   12198.38340200 -.00000286  00000-0  10000-3 0  3889",
			"tle2": "2 26038   0.0303 117.6757 0000567 153.6019 105.7863  1.00271716 46133",
			"visible": false
		},
		"26058": 
		{
			"comms": [],
			"groups": ["geostationary"],
			"lastUpdated": "2012-07-17T11:32:02",
			"name": "ZHONGXING-22",
			"orbitVisible": false,
			"tle1": "1 26058U 00003A   12198.79258396 -.00000293  00000-0  10000-3 0   297",
			"tle2": "2 26058   3.7430  66.9963 0003289  35.8590 215.2260  1.00269038 45748",
			"visible": false
		},
		"26071": 
		{
			"comms": [],
			"groups": ["geostationary"],
			"lastUpdated": "2012-07-17T11:32:02",
			"name": "HISPASAT 1C",
			"orbitVisible": false,
			"tle1": "1 26071U 00007A   12198.36377834 -.00000216  00000-0  00000+0 0  7947",
			"tle2": "2 26071   0.0238  16.2069 0005146  78.4100 300.9629  1.00272503 45672",
			"visible": false
		},
		"26089": 
		{
			"comms": [],
			"groups": ["geostationary"],
			"lastUpdated": "2012-07-17T11:32:02",
			"name": "GARUDA 1",
			"orbitVisible": false,
			"tle1": "1 26089U 00011A   12197.83638126 -.00000356  00000-0  00000+0 0    12",
			"tle2": "2 26089   1.0744 229.5784 0003150 289.6568 198.9219  1.00275514 45545",
			"visible": false
		},
		"26095": 
		{
			"comms": [],
			"groups": ["geostationary"],
			"lastUpdated": "2012-07-17T11:32:02",
			"name": "SUPERBIRD-B2",
			"orbitVisible": false,
			"tle1": "1 26095U 00012A   12197.83342748 -.00000093  00000-0  00000+0 0  3125",
			"tle2": "2 26095   0.0071 141.0339 0001852 342.0473 273.0121  1.00271198 45501",
			"visible": false
		},
		"26098": 
		{
			"comms": [],
			"groups": ["geostationary"],
			"lastUpdated": "2012-07-17T11:32:02",
			"name": "EXPRESS-A2",
			"orbitVisible": false,
			"tle1": "1 26098U 00013A   12198.70517311 -.00000326  00000-0  10000-3 0  7405",
			"tle2": "2 26098   5.8490  61.7028 0018962  82.4165 147.4458  1.00270284 45218",
			"visible": false
		},
		"26107": 
		{
			"comms": [],
			"groups": ["geostationary"],
			"lastUpdated": "2012-07-17T11:32:02",
			"name": "ASIASTAR",
			"orbitVisible": false,
			"tle1": "1 26107U 00016A   12198.46384558 -.00000332  00000-0  00000+0 0  2280",
			"tle2": "2 26107   0.0227   8.8412 0004396 118.5582  79.2918  1.00272783 45177",
			"visible": false
		},
		"26243": 
		{
			"comms": [],
			"groups": ["geostationary"],
			"lastUpdated": "2012-07-17T11:32:02",
			"name": "EUTELSAT 16C",
			"orbitVisible": false,
			"tle1": "1 26243U 00019A   12198.29797332  .00000095  00000-0  10000-3 0   528",
			"tle2": "2 26243   0.6309  76.6923 0004351  33.3467 306.2472  1.00275039 44851",
			"visible": false
		},
		"26352": 
		{
			"comms": [],
			"groups": ["scientific"],
			"hintColor": [0, 0.4, 0],
			"lastUpdated": "2012-07-17T11:32:02",
			"name": "GOES 11",
			"orbitVisible": false,
			"tle1": "1 26352U 00022A   12197.49627774 -.00000140  00000-0  00000+0 0  8622",
			"tle2": "2 26352   1.2552 119.2874 0007115 345.1243  13.7641  0.99045026 44659",
			"visible": false
		},
		"26360": 
		{
			"comms": [
			{
				"description": "L1",
				"frequency": 1575.42,
				"modulation": "QPSK"
			}, 
			{
				"description": "L2",
				"frequency": 1227.6,
				"modulation": "BPSK"
			}],
			"groups": ["gps", "navigation"],
			"lastUpdated": "2012-07-17T11:32:02",
			"name": "GPS BIIR-4  (PRN 20)",
			"orbitVisible": false,
			"tle1": "1 26360U 00025A   12198.41274136  .00000067  00000-0  10000-3 0  6829",
			"tle2": "2 26360  53.2773 229.8439 0046951  73.1623 287.4324  2.00563469 89316",
			"visible": false
		},
		"26369": 
		{
			"comms": [],
			"groups": ["geostationary"],
			"lastUpdated": "2012-07-17T11:32:02",
			"name": "EUTELSAT 36A",
			"orbitVisible": false,
			"tle1": "1 26369U 00028A   12198.82428682  .00000155  00000-0  10000-3 0  1196",
			"tle2": "2 26369   0.0680 356.2730 0004586 112.2351 159.4124  1.00276237 44503",
			"visible": false
		},
		"26388": 
		{
			"comms": [],
			"groups": ["geostationary"],
			"lastUpdated": "2012-07-17T11:32:02",
			"name": "TDRS 8",
			"orbitVisible": false,
			"tle1": "1 26388U 00034A   12197.95707834 -.00000226  00000-0  10000-3 0  6810",
			"tle2": "2 26388   4.0105  76.6166 0005031  23.2224 268.1142  1.00274926 44200",
			"visible": false
		},
		"26394": 
		{
			"comms": [],
			"groups": ["geostationary"],
			"lastUpdated": "2012-07-17T11:32:02",
			"name": "COSMOS 2371",
			"orbitVisible": false,
			"tle1": "1 26394U 00036A   12197.12695446 -.00000089  00000-0  10000-3 0  1309",
			"tle2": "2 26394   9.1486  52.7137 0006008  12.7586 347.2625  1.00283424 44058",
			"visible": false
		},
		"26402": 
		{
			"comms": [],
			"groups": ["geostationary"],
			"lastUpdated": "2012-07-17T11:32:02",
			"name": "ECHOSTAR 6",
			"orbitVisible": false,
			"tle1": "1 26402U 00038A   12198.21146951 -.00000243  00000-0  10000-3 0  2880",
			"tle2": "2 26402   0.5399  78.9725 0002688  45.4685 169.1643  1.00270750 43971",
			"visible": false
		},
		"26407": 
		{
			"comms": [
			{
				"description": "L1",
				"frequency": 1575.42,
				"modulation": "QPSK"
			}, 
			{
				"description": "L2",
				"frequency": 1227.6,
				"modulation": "BPSK"
			}],
			"groups": ["gps", "navigation"],
			"lastUpdated": "2012-07-17T11:32:02",
			"name": "GPS BIIR-5  (PRN 28)",
			"orbitVisible": false,
			"tle1": "1 26407U 00040A   12197.75795216 -.00000039  00000-0  10000-3 0  6360",
			"tle2": "2 26407  56.1274  55.3803 0181069 255.9056 102.1422  2.00568905 87975",
			"visible": false
		},
		"26451": 
		{
			"comms": [],
			"groups": ["geostationary"],
			"lastUpdated": "2012-07-17T11:32:02",
			"name": "INTELSAT 9 (IS-9)",
			"orbitVisible": false,
			"tle1": "1 26451U 00043A   12197.49667168 -.00000285  00000-0  10000-3 0  8216",
			"tle2": "2 26451   0.0379 238.6076 0001737 243.0329 292.9003  1.00272301 43864",
			"visible": false
		},
		"26469": 
		{
			"comms": [],
			"groups": ["geostationary"],
			"lastUpdated": "2012-07-17T11:32:02",
			"name": "BRASILSAT B4",
			"orbitVisible": false,
			"tle1": "1 26469U 00046A   12198.44040424 -.00000211  00000-0  00000+0 0  1086",
			"tle2": "2 26469   0.0727 221.5523 0002420 260.6443 247.0550  1.00272232 43669",
			"visible": false
		},
		"26470": 
		{
			"comms": [],
			"groups": ["geostationary"],
			"lastUpdated": "2012-07-17T11:32:02",
			"name": "NILESAT 102",
			"orbitVisible": false,
			"tle1": "1 26470U 00046B   12197.34635803 -.00000058  00000-0  00000+0 0  7217",
			"tle2": "2 26470   0.0430 283.3663 0003143 190.4217 297.5045  1.00272328 43659",
			"visible": false
		},
		"26477": 
		{
			"comms": [],
			"groups": ["geostationary"],
			"lastUpdated": "2012-07-17T11:32:02",
			"name": "RADUGA-1 5",
			"orbitVisible": false,
			"tle1": "1 26477U 00049A   12198.56904588 -.00000342  00000-0  10000-3 0  4040",
			"tle2": "2 26477   9.0239  53.2391 0004217  21.9978 169.9793  1.00269681 43514",
			"visible": false
		},
		"26494": 
		{
			"comms": [],
			"groups": ["geostationary"],
			"lastUpdated": "2012-07-17T11:32:02",
			"name": "ASTRA 2B",
			"orbitVisible": false,
			"tle1": "1 26494U 00054A   12198.23005792  .00000149  00000-0  00000+0 0   740",
			"tle2": "2 26494   0.0706 299.0556 0001587 176.2263 290.1974  1.00269353 43361",
			"visible": false
		},
		"26495": 
		{
			"comms": [],
			"groups": ["geostationary"],
			"lastUpdated": "2012-07-17T11:32:02",
			"name": "AMC-7 (GE-7)",
			"orbitVisible": false,
			"tle1": "1 26495U 00054B   12196.43306463  .00000096  00000-0  10000-3 0  9925",
			"tle2": "2 26495   0.0198 330.3816 0002864 131.2151 209.9968  1.00274139 43359",
			"visible": false
		},
		"26536": 
		{
			"comms": [],
			"groups": ["scientific", "weather", "non-operational"],
			"hintColor": [0.08, 0.33, 0.74],
			"lastUpdated": "2012-07-17T11:32:02",
			"name": "NOAA 16",
			"orbitVisible": true,
			"tle1": "1 26536U 00055A   12198.28715057 -.00000094  00000-0 -25970-4 0  8214",
			"tle2": "2 26536  99.0933 240.8576 0010528   7.1956 352.9356 14.12758665609141",
			"visible": true
		},
		"26554": 
		{
			"comms": [],
			"groups": ["geostationary"],
			"lastUpdated": "2012-07-17T11:32:02",
			"name": "NSS-11 (AAP-1)",
			"orbitVisible": false,
			"tle1": "1 26554U 00059A   12198.54534910 -.00000345  00000-0  10000-3 0  1919",
			"tle2": "2 26554   0.0426 272.4559 0002471 202.4011 124.4380  1.00271041 43223",
			"visible": false
		},
		"26559": 
		{
			"comms": [],
			"groups": ["geostationary"],
			"lastUpdated": "2012-07-17T11:32:02",
			"name": "N-SAT-110 (JCSAT-110)",
			"orbitVisible": false,
			"tle1": "1 26559U 00060A   12198.57875295 -.00000351  00000-0  10000-3 0  1314",
			"tle2": "2 26559   0.0406 240.8831 0000173  85.9307 286.4088  1.00270216 43156",
			"visible": false
		}
	},
	"shortName": "satellite orbital data"
}
